[{"OBJECT_NAME":"STARLINK-2756","OBJECT_ID":"2021-044AX","EPOCH":"2026-03-09T06:56:39.673248","MEAN_MOTION":15.30200644,"ECCENTRICITY":0.00014007,"INCLINATION":53.1602,"RA_OF_ASC_NODE":66.9949,"ARG_OF_PERICENTER":93.6092,"MEAN_ANOMALY":266.5069,"EPHEMERIS_TYPE":0,"CLASSIFICATION_TYPE":"U","NORAD_CAT_ID":48683,"ELEMENT_SET_NO":999,"REV_AT_EPOCH":26444,"BSTAR":0.00017492895,"MEAN_MOTION_DOT":4.825e-5,"MEAN_MOTION_DDOT":0},{"OBJECT_NAME":"UHETSAT","OBJECT_ID":"2023-185E","EPOCH":"2026-03-09T22:39:26.455680","MEAN_MOTION":15.29797662,"ECCENTRICITY":0.00118435,"INCLINATION":97.3584,"RA_OF_ASC_NODE":137.3576,"ARG_OF_PERICENTER":307.7346,"MEAN_ANOMALY":52.2821,"EPHEMERIS_TYPE":0,"CLASSIFICATION_TYPE":"U","NORAD_CAT_ID":58466,"ELEMENT_SET_NO":999,"REV_AT_EPOCH":12611,"BSTAR":0.00030513019,"MEAN_MOTION_DOT":8.749e-5,"MEAN_MOTION_DDOT":0}]
